{"type": "FeatureCollection", "features": [ {"type": "Feature", "properties": {"norad_id": 34845, "name": "COSMOS 2251 DEB", "group": "cosmos-2251-debris", "lat": -9.54545872336022, "lon": -52.07886497036592, "alt_km": 744.1097791909842, "timestamp": "2025-12-25T03:55:56.762572+00:00", "meta": {"OBJECT_NAME": "COSMOS 2251 DEB", "OBJECT_ID": "1993-036ABP", "EPOCH": "2025-12-24T15:25:52.110336", "MEAN_MOTION": 14.4588243, "ECCENTRICITY": 0.002269, "INCLINATION": 74.0249, "RA_OF_ASC_NODE": 126.132, "ARG_OF_PERICENTER": 285.329, "MEAN_ANOMALY": 74.5361, "EPHEMERIS_TYPE": 0, "CLASSIFICATION_TYPE": "U", "NORAD_CAT_ID": 34845, "ELEMENT_SET_NO": 999, "REV_AT_EPOCH": 87638, "BSTAR": 0.00029041, "MEAN_MOTION_DOT": 1.008e-05, "MEAN_MOTION_DDOT": 0}, "tle": {"line1": "1 34845U 93036ABP 25358.64296424  .00001008  00000+0  29041-3 0  9992", "line2": "2 34845  74.0249 126.1320 0022690 285.3290  74.5361 14.45882430876382"}}, "geometry": {"type": "Point", "coordinates": [-52.07886497036592, -9.54545872336022]}}, {"type": "Feature", "properties": {"norad_id": 34846, "name": "COSMOS 2251 DEB", "group": "cosmos-2251-debris", "lat": -10.265092915218261, "lon": 61.513971449734434, "alt_km": 745.5873613617177, "timestamp": "2025-12-25T03:55:56.762582+00:00", "meta": {"OBJECT_NAME": "COSMOS 2251 DEB", "OBJECT_ID": "1993-036ABQ", "EPOCH": "2025-12-24T17:05:55.036320", "MEAN_MOTION": 14.4727738, "ECCENTRICITY": 0.0026231, "INCLINATION": 74.0298, "RA_OF_ASC_NODE": 239.3851, "ARG_OF_PERICENTER": 304.2923, "MEAN_ANOMALY": 55.5752, "EPHEMERIS_TYPE": 0, "CLASSIFICATION_TYPE": "U", "NORAD_CAT_ID": 34846, "ELEMENT_SET_NO": 999, "REV_AT_EPOCH": 87577, "BSTAR": 0.00069731, "MEAN_MOTION_DOT": 2.535e-05, "MEAN_MOTION_DDOT": 0}, "tle": {"line1": "1 34846U 93036ABQ 25358.71244255  .00002535  00000+0  69731-3 0  9992", "line2": "2 34846  74.0298 239.3851 0026231 304.2923  55.5752 14.47277380875771"}}, "geometry": {"type": "Point", "coordinates": [61.513971449734434, -10.265092915218261]}}, {"type": "Feature", "properties": {"norad_id": 34852, "name": "COSMOS 2251 DEB", "group": "cosmos-2251-debris", "lat": 19.703789303174858, "lon": 54.23935466232171, "alt_km": 779.9948635650544, "timestamp": "2025-12-25T03:55:56.762593+00:00", "meta": {"OBJECT_NAME": "COSMOS 2251 DEB", "OBJECT_ID": "1993-036ABW", "EPOCH": "2025-12-22T10:01:54.526080", "MEAN_MOTION": 14.37012127, "ECCENTRICITY": 0.00166159, "INCLINATION": 74.0324, "RA_OF_ASC_NODE": 245.1729, "ARG_OF_PERICENTER": 346.342, "MEAN_ANOMALY": 13.7281, "EPHEMERIS_TYPE": 0, "CLASSIFICATION_TYPE": "U", "NORAD_CAT_ID": 34852, "ELEMENT_SET_NO": 999, "REV_AT_EPOCH": 87673, "BSTAR": 0.00010888477, "MEAN_MOTION_DOT": 2.97e-06, "MEAN_MOTION_DDOT": 0}, "tle": {"line1": "1 34852U 93036ABW 25356.41799220  .00000297  00000+0  10888-3 0  9993", "line2": "2 34852  74.0324 245.1729 0016615 346.3420  13.7281 14.37012127876736"}}, "geometry": {"type": "Point", "coordinates": [54.23935466232171, 19.703789303174858]}}, {"type": "Feature", "properties": {"norad_id": 34854, "name": "COSMOS 2251 DEB", "group": "cosmos-2251-debris", "lat": 34.47460006297303, "lon": 145.56790792557962, "alt_km": 678.1198886280145, "timestamp": "2025-12-25T03:55:56.762603+00:00", "meta": {"OBJECT_NAME": "COSMOS 2251 DEB", "OBJECT_ID": "1993-036ABY", "EPOCH": "2025-12-24T03:22:47.701632", "MEAN_MOTION": 14.76734417, "ECCENTRICITY": 0.00659344, "INCLINATION": 74.0296, "RA_OF_ASC_NODE": 136.2324, "ARG_OF_PERICENTER": 245.6439, "MEAN_ANOMALY": 113.7843, "EPHEMERIS_TYPE": 0, "CLASSIFICATION_TYPE": "U", "NORAD_CAT_ID": 34854, "ELEMENT_SET_NO": 999, "REV_AT_EPOCH": 72050, "BSTAR": 0.00083194152, "MEAN_MOTION_DOT": 6.009e-05, "MEAN_MOTION_DDOT": 0}, "tle": {"line1": "1 34854U 93036ABY 25358.14082988  .00006009  00000+0  83194-3 0  9990", "line2": "2 34854  74.0296 136.2324 0065934 245.6439 113.7843 14.76734417720500"}}, "geometry": {"type": "Point", "coordinates": [145.56790792557962, 34.47460006297303]}}, {"type": "Feature", "properties": {"norad_id": 34856, "name": "COSMOS 2251 DEB", "group": "cosmos-2251-debris", "lat": -3.6069051179961367, "lon": 58.25156349576689, "alt_km": 569.954410342546, "timestamp": "2025-12-25T03:55:56.762613+00:00", "meta": {"OBJECT_NAME": "COSMOS 2251 DEB", "OBJECT_ID": "1993-036ACA", "EPOCH": "2025-12-24T13:55:09.154848", "MEAN_MOTION": 15.06637245, "ECCENTRICITY": 0.0031064, "INCLINATION": 73.996, "RA_OF_ASC_NODE": 60.4896, "ARG_OF_PERICENTER": 196.0211, "MEAN_ANOMALY": 234.6286, "EPHEMERIS_TYPE": 0, "CLASSIFICATION_TYPE": "U", "NORAD_CAT_ID": 34856, "ELEMENT_SET_NO": 999, "REV_AT_EPOCH": 89290, "BSTAR": 0.0017356, "MEAN_MOTION_DOT": 0.00026078, "MEAN_MOTION_DDOT": 0}, "tle": {"line1": "1 34856U 93036ACA 25358.57996707  .00026078  00000+0  17356-2 0  9996", "line2": "2 34856  73.9960  60.4896 0031064 196.0211 234.6286 15.06637245892907"}}, "geometry": {"type": "Point", "coordinates": [58.25156349576689, -3.6069051179961367]}}, {"type": "Feature", "properties": {"norad_id": 34857, "name": "COSMOS 2251 DEB", "group": "cosmos-2251-debris", "lat": 44.48059875883097, "lon": 99.4793241125874, "alt_km": 735.1664810339998, "timestamp": "2025-12-25T03:55:56.762623+00:00", "meta": {"OBJECT_NAME": "COSMOS 2251 DEB", "OBJECT_ID": "1993-036ACB", "EPOCH": "2025-12-24T16:53:52.149984", "MEAN_MOTION": 14.5900619, "ECCENTRICITY": 0.0065319, "INCLINATION": 74.0151, "RA_OF_ASC_NODE": 84.0064, "ARG_OF_PERICENTER": 206.2464, "MEAN_ANOMALY": 306.9484, "EPHEMERIS_TYPE": 0, "CLASSIFICATION_TYPE": "U", "NORAD_CAT_ID": 34857, "ELEMENT_SET_NO": 999, "REV_AT_EPOCH": 88075, "BSTAR": 0.001032, "MEAN_MOTION_DOT": 4.964e-05, "MEAN_MOTION_DDOT": 0}, "tle": {"line1": "1 34857U 93036ACB 25358.70407581  .00004964  00000+0  10320-2 0  9993", "line2": "2 34857  74.0151  84.0064 0065319 206.2464 306.9484 14.59006190880754"}}, "geometry": {"type": "Point", "coordinates": [99.4793241125874, 44.48059875883097]}}, {"type": "Feature", "properties": {"norad_id": 34859, "name": "COSMOS 2251 DEB", "group": "cosmos-2251-debris", "lat": 14.054045517984406, "lon": -42.11394384521829, "alt_km": 515.9427279633173, "timestamp": "2025-12-25T03:55:56.762634+00:00", "meta": {"OBJECT_NAME": "COSMOS 2251 DEB", "OBJECT_ID": "1993-036ACD", "EPOCH": "2025-12-24T04:10:42.368736", "MEAN_MOTION": 15.16428832, "ECCENTRICITY": 0.00014059, "INCLINATION": 74.0269, "RA_OF_ASC_NODE": 315.8379, "ARG_OF_PERICENTER": 30.9483, "MEAN_ANOMALY": 342.6844, "EPHEMERIS_TYPE": 0, "CLASSIFICATION_TYPE": "U", "NORAD_CAT_ID": 34859, "ELEMENT_SET_NO": 999, "REV_AT_EPOCH": 88532, "BSTAR": 0.0038295691, "MEAN_MOTION_DOT": 0.00075227, "MEAN_MOTION_DDOT": 0}, "tle": {"line1": "1 34859U 93036ACD 25358.17410149  .00075227  00000+0  38296-2 0  9992", "line2": "2 34859  74.0269 315.8379 0001405  30.9483 342.6844 15.16428832885329"}}, "geometry": {"type": "Point", "coordinates": [-42.11394384521829, 14.054045517984406]}}, {"type": "Feature", "properties": {"norad_id": 34861, "name": "COSMOS 2251 DEB", "group": "cosmos-2251-debris", "lat": 65.9482406425737, "lon": 65.41260683138668, "alt_km": 546.8089132084369, "timestamp": "2025-12-25T03:55:56.762644+00:00", "meta": {"OBJECT_NAME": "COSMOS 2251 DEB", "OBJECT_ID": "1993-036ACF", "EPOCH": "2025-12-23T20:27:37.747872", "MEAN_MOTION": 15.03229594, "ECCENTRICITY": 0.00082989, "INCLINATION": 74.0174, "RA_OF_ASC_NODE": 28.1383, "ARG_OF_PERICENTER": 17.2491, "MEAN_ANOMALY": 160.8875, "EPHEMERIS_TYPE": 0, "CLASSIFICATION_TYPE": "U", "NORAD_CAT_ID": 34861, "ELEMENT_SET_NO": 999, "REV_AT_EPOCH": 88259, "BSTAR": 0.0024555152, "MEAN_MOTION_DOT": 0.00033393, "MEAN_MOTION_DDOT": 0}, "tle": {"line1": "1 34861U 93036ACF 25357.85252023  .00033393  00000+0  24555-2 0  9995", "line2": "2 34861  74.0174  28.1383 0008298  17.2491 160.8875 15.03229594882590"}}, "geometry": {"type": "Point", "coordinates": [65.41260683138668, 65.9482406425737]}}, {"type": "Feature", "properties": {"norad_id": 34874, "name": "COSMOS 2251 DEB", "group": "cosmos-2251-debris", "lat": -66.75195559918872, "lon": 9.17481827057361, "alt_km": 806.948312157745, "timestamp": "2025-12-25T03:55:56.762654+00:00", "meta": {"OBJECT_NAME": "COSMOS 2251 DEB", "OBJECT_ID": "1993-036ACM", "EPOCH": "2025-12-24T13:56:03.291360", "MEAN_MOTION": 14.36362891, "ECCENTRICITY": 0.0050497, "INCLINATION": 74.0393, "RA_OF_ASC_NODE": 52.0188, "ARG_OF_PERICENTER": 73.3977, "MEAN_ANOMALY": 79.3314, "EPHEMERIS_TYPE": 0, "CLASSIFICATION_TYPE": "U", "NORAD_CAT_ID": 34874, "ELEMENT_SET_NO": 999, "REV_AT_EPOCH": 87214, "BSTAR": 0.00079055, "MEAN_MOTION_DOT": 2.323e-05, "MEAN_MOTION_DDOT": 0}, "tle": {"line1": "1 34874U 93036ACM 25358.58059365  .00002323  00000+0  79055-3 0  9999", "line2": "2 34874  74.0393  52.0188 0050497  73.3977  79.3314 14.36362891872141"}}, "geometry": {"type": "Point", "coordinates": [9.17481827057361, -66.75195559918872]}}, {"type": "Feature", "properties": {"norad_id": 34875, "name": "COSMOS 2251 DEB", "group": "cosmos-2251-debris", "lat": -3.3993214001671985, "lon": -44.08890662697366, "alt_km": 728.9279242770072, "timestamp": "2025-12-25T03:55:56.762664+00:00", "meta": {"OBJECT_NAME": "COSMOS 2251 DEB", "OBJECT_ID": "1993-036ACN", "EPOCH": "2025-12-24T15:33:22.942080", "MEAN_MOTION": 14.48965081, "ECCENTRICITY": 0.001626, "INCLINATION": 74.0438, "RA_OF_ASC_NODE": 135.9032, "ARG_OF_PERICENTER": 258.7537, "MEAN_ANOMALY": 116.0666, "EPHEMERIS_TYPE": 0, "CLASSIFICATION_TYPE": "U", "NORAD_CAT_ID": 34875, "ELEMENT_SET_NO": 999, "REV_AT_EPOCH": 87928, "BSTAR": 0.00046663, "MEAN_MOTION_DOT": 1.744e-05, "MEAN_MOTION_DDOT": 0}, "tle": {"line1": "1 34875U 93036ACN 25358.64818220  .00001744  00000+0  46663-3 0  9995", "line2": "2 34875  74.0438 135.9032 0016260 258.7537 116.0666 14.48965081879286"}}, "geometry": {"type": "Point", "coordinates": [-44.08890662697366, -3.3993214001671985]}}]}